CCSDS_OMM_VERS = 2.0
CREATION_DATE  = 
ORIGINATOR     = 

OBJECT_NAME    = CZ-2D R/B
OBJECT_ID      = 2005-024B
CENTER_NAME    = EARTH
REF_FRAME      = TEME
TIME_SYSTEM    = UTC
MEAN_ELEMENT_THEORY = SGP/SGP4

EPOCH          = 2025-11-22T00:45:14.606784
MEAN_MOTION    = 15.51812128
ECCENTRICITY   = .0008027
INCLINATION    = 97.3644
RA_OF_ASC_NODE = 332.9574
ARG_OF_PERICENTER = 65.8251
MEAN_ANOMALY   = 294.3840

EPHEMERIS_TYPE = 0
CLASSIFICATION_TYPE = U
NORAD_CAT_ID   = 28738
ELEMENT_SET_NO = 999
REV_AT_EPOCH   = 12304
BSTAR          = .41048E-3
MEAN_MOTION_DOT = .24502E-3
MEAN_MOTION_DDOT = 0

CCSDS_OMM_VERS = 2.0
CREATION_DATE  = 
ORIGINATOR     = 

OBJECT_NAME    = ALOS (DAICHI)
OBJECT_ID      = 2006-002A
CENTER_NAME    = EARTH
REF_FRAME      = TEME
TIME_SYSTEM    = UTC
MEAN_ELEMENT_THEORY = SGP/SGP4

EPOCH          = 2025-11-21T20:36:26.394048
MEAN_MOTION    = 14.69392898
ECCENTRICITY   = .000078
INCLINATION    = 98.1062
RA_OF_ASC_NODE = 277.4980
ARG_OF_PERICENTER = 67.9502
MEAN_ANOMALY   = 292.1786

EPHEMERIS_TYPE = 0
CLASSIFICATION_TYPE = U
NORAD_CAT_ID   = 28931
ELEMENT_SET_NO = 999
REV_AT_EPOCH   = 5764
BSTAR          = .29765E-3
MEAN_MOTION_DOT = .1711E-4
MEAN_MOTION_DDOT = 0

CCSDS_OMM_VERS = 2.0
CREATION_DATE  = 
ORIGINATOR     = 

OBJECT_NAME    = H-2A R/B
OBJECT_ID      = 2006-002B
CENTER_NAME    = EARTH
REF_FRAME      = TEME
TIME_SYSTEM    = UTC
MEAN_ELEMENT_THEORY = SGP/SGP4

EPOCH          = 2025-11-21T23:16:47.580096
MEAN_MOTION    = 15.13986200
ECCENTRICITY   = .0054323
INCLINATION    = 98.2317
RA_OF_ASC_NODE = 99.0346
ARG_OF_PERICENTER = 247.2464
MEAN_ANOMALY   = 112.3019

EPHEMERIS_TYPE = 0
CLASSIFICATION_TYPE = U
NORAD_CAT_ID   = 28932
ELEMENT_SET_NO = 999
REV_AT_EPOCH   = 7812
BSTAR          = .57327E-3
MEAN_MOTION_DOT = .10718E-3
MEAN_MOTION_DDOT = 0

CCSDS_OMM_VERS = 2.0
CREATION_DATE  = 
ORIGINATOR     = 

OBJECT_NAME    = RESURS-DK 1
OBJECT_ID      = 2006-021A
CENTER_NAME    = EARTH
REF_FRAME      = TEME
TIME_SYSTEM    = UTC
MEAN_ELEMENT_THEORY = SGP/SGP4

EPOCH          = 2025-11-21T22:13:18.077088
MEAN_MOTION    = 15.11986414
ECCENTRICITY   = .000727
INCLINATION    = 69.9303
RA_OF_ASC_NODE = 155.6197
ARG_OF_PERICENTER = 275.6083
MEAN_ANOMALY   = 84.4253

EPHEMERIS_TYPE = 0
CLASSIFICATION_TYPE = U
NORAD_CAT_ID   = 29228
ELEMENT_SET_NO = 999
REV_AT_EPOCH   = 7123
BSTAR          = .15946E-3
MEAN_MOTION_DOT = .2638E-4
MEAN_MOTION_DDOT = 0

CCSDS_OMM_VERS = 2.0
CREATION_DATE  = 
ORIGINATOR     = 

OBJECT_NAME    = CZ-4B R/B
OBJECT_ID      = 2006-046C
CENTER_NAME    = EARTH
REF_FRAME      = TEME
TIME_SYSTEM    = UTC
MEAN_ELEMENT_THEORY = SGP/SGP4

EPOCH          = 2025-11-22T02:32:09.936384
MEAN_MOTION    = 15.15578060
ECCENTRICITY   = .0032602
INCLINATION    = 97.5759
RA_OF_ASC_NODE = 6.3013
ARG_OF_PERICENTER = 280.7156
MEAN_ANOMALY   = 79.0406

EPHEMERIS_TYPE = 0
CLASSIFICATION_TYPE = U
NORAD_CAT_ID   = 29507
ELEMENT_SET_NO = 999
REV_AT_EPOCH   = 4374
BSTAR          = .26417E-3
MEAN_MOTION_DOT = .501E-4
MEAN_MOTION_DDOT = 0

CCSDS_OMM_VERS = 2.0
CREATION_DATE  = 
ORIGINATOR     = 

OBJECT_NAME    = CZ-2C R/B
OBJECT_ID      = 2007-010B
CENTER_NAME    = EARTH
REF_FRAME      = TEME
TIME_SYSTEM    = UTC
MEAN_ELEMENT_THEORY = SGP/SGP4

EPOCH          = 2025-11-21T22:26:33.213696
MEAN_MOTION    = 14.20197253
ECCENTRICITY   = .0058024
INCLINATION    = 98.3970
RA_OF_ASC_NODE = 79.6340
ARG_OF_PERICENTER = 247.0829
MEAN_ANOMALY   = 112.4218

EPHEMERIS_TYPE = 0
CLASSIFICATION_TYPE = U
NORAD_CAT_ID   = 31114
ELEMENT_SET_NO = 999
REV_AT_EPOCH   = 96442
BSTAR          = .10858E-3
MEAN_MOTION_DOT = .194E-5
MEAN_MOTION_DDOT = 0

CCSDS_OMM_VERS = 2.0
CREATION_DATE  = 
ORIGINATOR     = 

OBJECT_NAME    = COSMO-SKYMED 1
OBJECT_ID      = 2007-023A
CENTER_NAME    = EARTH
REF_FRAME      = TEME
TIME_SYSTEM    = UTC
MEAN_ELEMENT_THEORY = SGP/SGP4

EPOCH          = 2025-11-22T04:22:39.531936
MEAN_MOTION    = 14.95544902
ECCENTRICITY   = .0001093
INCLINATION    = 97.8836
RA_OF_ASC_NODE = 151.4496
ARG_OF_PERICENTER = 89.0045
MEAN_ANOMALY   = 271.1301

EPHEMERIS_TYPE = 0
CLASSIFICATION_TYPE = U
NORAD_CAT_ID   = 31598
ELEMENT_SET_NO = 999
REV_AT_EPOCH   = 99882
BSTAR          = .34974E-3
MEAN_MOTION_DOT = .3819E-4
MEAN_MOTION_DDOT = 0

CCSDS_OMM_VERS = 2.0
CREATION_DATE  = 
ORIGINATOR     = 

OBJECT_NAME    = COSMOS 2428
OBJECT_ID      = 2007-029A
CENTER_NAME    = EARTH
REF_FRAME      = TEME
TIME_SYSTEM    = UTC
MEAN_ELEMENT_THEORY = SGP/SGP4

EPOCH          = 2025-11-21T17:04:22.455264
MEAN_MOTION    = 14.12887139
ECCENTRICITY   = .000255
INCLINATION    = 70.9370
RA_OF_ASC_NODE = 70.0277
ARG_OF_PERICENTER = 58.5917
MEAN_ANOMALY   = 301.5453

EPHEMERIS_TYPE = 0
CLASSIFICATION_TYPE = U
NORAD_CAT_ID   = 31792
ELEMENT_SET_NO = 999
REV_AT_EPOCH   = 94884
BSTAR          = -.61305E-4
MEAN_MOTION_DOT = -.162E-5
MEAN_MOTION_DDOT = 0

CCSDS_OMM_VERS = 2.0
CREATION_DATE  = 
ORIGINATOR     = 

OBJECT_NAME    = SL-16 R/B
OBJECT_ID      = 2007-029B
CENTER_NAME    = EARTH
REF_FRAME      = TEME
TIME_SYSTEM    = UTC
MEAN_ELEMENT_THEORY = SGP/SGP4

EPOCH          = 2025-11-21T16:24:20.296800
MEAN_MOTION    = 14.14815984
ECCENTRICITY   = .0002261
INCLINATION    = 70.9778
RA_OF_ASC_NODE = 39.4180
ARG_OF_PERICENTER = 263.7664
MEAN_ANOMALY   = 207.6362

EPHEMERIS_TYPE = 0
CLASSIFICATION_TYPE = U
NORAD_CAT_ID   = 31793
ELEMENT_SET_NO = 999
REV_AT_EPOCH   = 95009
BSTAR          = .10716E-3
MEAN_MOTION_DOT = .159E-5
MEAN_MOTION_DDOT = 0

CCSDS_OMM_VERS = 2.0
CREATION_DATE  = 
ORIGINATOR     = 

OBJECT_NAME    = KORONAS-FOTON
OBJECT_ID      = 2009-003A
CENTER_NAME    = EARTH
REF_FRAME      = TEME
TIME_SYSTEM    = UTC
MEAN_ELEMENT_THEORY = SGP/SGP4

EPOCH          = 2025-11-21T15:33:43.837920
MEAN_MOTION    = 15.40533970
ECCENTRICITY   = .0011709
INCLINATION    = 82.4329
RA_OF_ASC_NODE = 27.9470
ARG_OF_PERICENTER = 178.9899
MEAN_ANOMALY   = 181.1372

EPHEMERIS_TYPE = 0
CLASSIFICATION_TYPE = U
NORAD_CAT_ID   = 33504
ELEMENT_SET_NO = 999
REV_AT_EPOCH   = 92909
BSTAR          = .27296E-3
MEAN_MOTION_DOT = .11145E-3
MEAN_MOTION_DDOT = 0

CCSDS_OMM_VERS = 2.0
CREATION_DATE  = 
ORIGINATOR     = 

OBJECT_NAME    = CZ-2C R/B
OBJECT_ID      = 2011-030B
CENTER_NAME    = EARTH
REF_FRAME      = TEME
TIME_SYSTEM    = UTC
MEAN_ELEMENT_THEORY = SGP/SGP4

EPOCH          = 2025-11-21T22:01:57.911232
MEAN_MOTION    = 14.80796051
ECCENTRICITY   = .0052635
INCLINATION    = 97.8382
RA_OF_ASC_NODE = 280.4907
ARG_OF_PERICENTER = 342.8071
MEAN_ANOMALY   = 82.4695

EPHEMERIS_TYPE = 0
CLASSIFICATION_TYPE = U
NORAD_CAT_ID   = 37731
ELEMENT_SET_NO = 999
REV_AT_EPOCH   = 77414
BSTAR          = .2536E-3
MEAN_MOTION_DOT = .1947E-4
MEAN_MOTION_DDOT = 0

CCSDS_OMM_VERS = 2.0
CREATION_DATE  = 
ORIGINATOR     = 

OBJECT_NAME    = H-2A R/B
OBJECT_ID      = 2012-025E
CENTER_NAME    = EARTH
REF_FRAME      = TEME
TIME_SYSTEM    = UTC
MEAN_ELEMENT_THEORY = SGP/SGP4

EPOCH          = 2025-11-21T21:10:21.166752
MEAN_MOTION    = 14.94241595
ECCENTRICITY   = .0044105
INCLINATION    = 98.4565
RA_OF_ASC_NODE = 279.5106
ARG_OF_PERICENTER = 306.6539
MEAN_ANOMALY   = 53.0628

EPHEMERIS_TYPE = 0
CLASSIFICATION_TYPE = U
NORAD_CAT_ID   = 38341
ELEMENT_SET_NO = 999
REV_AT_EPOCH   = 73211
BSTAR          = .4009E-3
MEAN_MOTION_DOT = .4314E-4
MEAN_MOTION_DDOT = 0

