CZ-2D R/B               
1 28738U 05024B   25326.03141906  .00024502  00000+0  41048-3 0  9993
2 28738  97.3644 332.9574 0008027  65.8251 294.3840 15.51812128123044
ALOS (DAICHI)           
1 28931U 06002A   25325.85863882  .00001711  00000+0  29765-3 0  9997
2 28931  98.1062 277.4980 0000780  67.9502 292.1786 14.69392898 57648
H-2A R/B                
1 28932U 06002B   25325.96999514  .00010718  00000+0  57327-3 0  9994
2 28932  98.2317  99.0346 0054323 247.2464 112.3019 15.13986200 78123
RESURS-DK 1             
1 29228U 06021A   25325.92590367  .00002638  00000+0  15946-3 0  9996
2 29228  69.9303 155.6197 0007270 275.6083  84.4253 15.11986414 71235
CZ-4B R/B               
1 29507U 06046C   25326.10567056  .00005010  00000+0  26417-3 0  9995
2 29507  97.5759   6.3013 0032602 280.7156  79.0406 15.15578060 43744
CZ-2C R/B               
1 31114U 07010B   25325.93510664  .00000194  00000+0  10858-3 0  9997
2 31114  98.3970  79.6340 0058024 247.0829 112.4218 14.20197253964426
COSMO-SKYMED 1          
1 31598U 07023A   25326.18240199  .00003819  00000+0  34974-3 0  9990
2 31598  97.8836 151.4496 0001093  89.0045 271.1301 14.95544902998822
COSMOS 2428             
1 31792U 07029A   25325.71137101 -.00000162  00000+0 -61305-4 0  9997
2 31792  70.9370  70.0277 0002550  58.5917 301.5453 14.12887139948848
SL-16 R/B               
1 31793U 07029B   25325.68356825  .00000159  00000+0  10716-3 0  9993
2 31793  70.9778  39.4180 0002261 263.7664 207.6362 14.14815984950097
KORONAS-FOTON           
1 33504U 09003A   25325.64842405  .00011145  00000+0  27296-3 0  9997
2 33504  82.4329  27.9470 0011709 178.9899 181.1372 15.40533970929092
CZ-2C R/B               
1 37731U 11030B   25325.91803138  .00001947  00000+0  25360-3 0  9995
2 37731  97.8382 280.4907 0052635 342.8071  82.4695 14.80796051774144
H-2A R/B                
1 38341U 12025E   25325.88218943  .00004314  00000+0  40090-3 0  9996
2 38341  98.4565 279.5106 0044105 306.6539  53.0628 14.94241595732116
